{
  "type": "FeatureCollection",
  "features": [
    {
      "type": "Feature",
      "properties": {
        "norad_id": 33412,
        "name": "COSMO-SKYMED 3",
        "group": "resource",
        "lat": 2.718174581411971,
        "lon": 31.189267910576238,
        "alt_km": 544.9250922194606,
        "timestamp": "2025-12-26T04:40:05.444833+00:00",
        "meta_object_name": "COSMO-SKYMED 3",
        "meta_object_id": "2008-054A",
        "meta_epoch": "2025-12-25T21:30:15.993216",
        "meta_mean_motion": 15.05470263,
        "meta_eccentricity": 0.00171253,
        "meta_inclination": 97.8451,
        "meta_ra_of_asc_node": 210.5108,
        "meta_arg_of_pericenter": 129.2959,
        "meta_mean_anomaly": 230.9789,
        "meta_ephemeris_type": 0,
        "meta_classification_type": "U",
        "meta_norad_cat_id": 33412,
        "meta_element_set_no": 999,
        "meta_rev_at_epoch": 93085,
        "meta_bstar": 0.00046757979,
        "meta_mean_motion_dot": 6.678e-05,
        "meta_mean_motion_ddot": 0,
        "tle_line1": "1 33412U 08054A   25359.89601844  .00006678  00000+0  46758-3 0  9993",
        "tle_line2": "2 33412  97.8451 210.5108 0017125 129.2959 230.9789 15.05470263930855"
      },
      "geometry": {
        "type": "Point",
        "coordinates": [
          31.189267910576238,
          2.718174581411971
        ]
      }
    },
    {
      "type": "Feature",
      "properties": {
        "norad_id": 33446,
        "name": "YAOGAN-4",
        "group": "resource",
        "lat": 39.786662637889314,
        "lon": 116.82001073152462,
        "alt_km": 624.2226987165777,
        "timestamp": "2025-12-26T04:40:05.444844+00:00",
        "meta_object_name": "YAOGAN-4",
        "meta_object_id": "2008-061A",
        "meta_epoch": "2025-12-25T18:19:17.173344",
        "meta_mean_motion": 14.8271976,
        "meta_eccentricity": 0.00129661,
        "meta_inclination": 97.9198,
        "meta_ra_of_asc_node": 289.7359,
        "meta_arg_of_pericenter": 277.0684,
        "meta_mean_anomaly": 82.9055,
        "meta_ephemeris_type": 0,
        "meta_classification_type": "U",
        "meta_norad_cat_id": 33446,
        "meta_element_set_no": 999,
        "meta_rev_at_epoch": 91996,
        "meta_bstar": 0.00018510552,
        "meta_mean_motion_dot": 1.442e-05,
        "meta_mean_motion_ddot": 0,
        "tle_line1": "1 33446U 08061A   25359.76339321  .00001442  00000+0  18511-3 0  9992",
        "tle_line2": "2 33446  97.9198 289.7359 0012966 277.0684  82.9055 14.82719760919964"
      },
      "geometry": {
        "type": "Point",
        "coordinates": [
          116.82001073152462,
          39.786662637889314
        ]
      }
    },
    {
      "type": "Feature",
      "properties": {
        "norad_id": 33492,
        "name": "GOSAT (IBUKI)",
        "group": "resource",
        "lat": 1.0602919580846877,
        "lon": -71.23854688303533,
        "alt_km": 671.5658986330063,
        "timestamp": "2025-12-26T04:40:05.444854+00:00",
        "meta_object_name": "GOSAT (IBUKI)",
        "meta_object_id": "2009-002A",
        "meta_epoch": "2025-12-25T19:40:27.371136",
        "meta_mean_motion": 14.67549933,
        "meta_eccentricity": 0.00010311,
        "meta_inclination": 98.0771,
        "meta_ra_of_asc_node": 108.2414,
        "meta_arg_of_pericenter": 105.3018,
        "meta_mean_anomaly": 254.8301,
        "meta_ephemeris_type": 0,
        "meta_classification_type": "U",
        "meta_norad_cat_id": 33492,
        "meta_element_set_no": 999,
        "meta_rev_at_epoch": 90603,
        "meta_bstar": 0.00017175521,
        "meta_mean_motion_dot": 9.26e-06,
        "meta_mean_motion_ddot": 0,
        "tle_line1": "1 33492U 09002A   25359.81976124  .00000926  00000+0  17176-3 0  9995",
        "tle_line2": "2 33492  98.0771 108.2414 0001031 105.3018 254.8301 14.67549933906030"
      },
      "geometry": {
        "type": "Point",
        "coordinates": [
          -71.23854688303533,
          1.0602919580846877
        ]
      }
    },
    {
      "type": "Feature",
      "properties": {
        "norad_id": 35681,
        "name": "DEIMOS-1",
        "group": "resource",
        "lat": -73.2181177451053,
        "lon": -46.543671356360285,
        "alt_km": 654.213250761587,
        "timestamp": "2025-12-26T04:40:05.444866+00:00",
        "meta_object_name": "DEIMOS-1",
        "meta_object_id": "2009-041A",
        "meta_epoch": "2025-12-25T22:37:51.672288",
        "meta_mean_motion": 14.74971621,
        "meta_eccentricity": 0.00024534,
        "meta_inclination": 97.7158,
        "meta_ra_of_asc_node": 159.9324,
        "meta_arg_of_pericenter": 59.8125,
        "meta_mean_anomaly": 300.3327,
        "meta_ephemeris_type": 0,
        "meta_classification_type": "U",
        "meta_norad_cat_id": 35681,
        "meta_element_set_no": 999,
        "meta_rev_at_epoch": 88134,
        "meta_bstar": 0.00010562581,
        "meta_mean_motion_dot": 6.63e-06,
        "meta_mean_motion_ddot": 0,
        "tle_line1": "1 35681U 09041A   25359.94295917  .00000663  00000+0  10563-3 0  9999",
        "tle_line2": "2 35681  97.7158 159.9324 0002453  59.8125 300.3327 14.74971621881343"
      },
      "geometry": {
        "type": "Point",
        "coordinates": [
          -46.543671356360285,
          -73.2181177451053
        ]
      }
    },
    {
      "type": "Feature",
      "properties": {
        "norad_id": 35682,
        "name": "DUBAISAT-1",
        "group": "resource",
        "lat": 6.198690181191079,
        "lon": -48.45013390663703,
        "alt_km": 648.7275520050371,
        "timestamp": "2025-12-26T04:40:05.444877+00:00",
        "meta_object_name": "DUBAISAT-1",
        "meta_object_id": "2009-041B",
        "meta_epoch": "2025-12-25T22:59:48.724512",
        "meta_mean_motion": 14.74639444,
        "meta_eccentricity": 0.00092507,
        "meta_inclination": 97.9799,
        "meta_ra_of_asc_node": 130.4441,
        "meta_arg_of_pericenter": 266.7795,
        "meta_mean_anomaly": 93.2355,
        "meta_ephemeris_type": 0,
        "meta_classification_type": "U",
        "meta_norad_cat_id": 35682,
        "meta_element_set_no": 999,
        "meta_rev_at_epoch": 87956,
        "meta_bstar": 0.00020689449,
        "meta_mean_motion_dot": 1.33e-05,
        "meta_mean_motion_ddot": 0,
        "tle_line1": "1 35682U 09041B   25359.95820283  .00001330  00000+0  20689-3 0  9993",
        "tle_line2": "2 35682  97.9799 130.4441 0009250 266.7795  93.2355 14.74639444879569"
      },
      "geometry": {
        "type": "Point",
        "coordinates": [
          -48.45013390663703,
          6.198690181191079
        ]
      }
    },
    {
      "type": "Feature",
      "properties": {
        "norad_id": 35931,
        "name": "OCEANSAT-2",
        "group": "resource",
        "lat": -36.06447195376705,
        "lon": 5.473841454759606,
        "alt_km": 893.3294277778332,
        "timestamp": "2025-12-26T04:40:05.444889+00:00",
        "meta_object_name": "OCEANSAT-2",
        "meta_object_id": "2009-051A",
        "meta_epoch": "2025-12-25T23:41:40.611840",
        "meta_mean_motion": 13.99622975,
        "meta_eccentricity": 0.00158773,
        "meta_inclination": 98.2218,
        "meta_ra_of_asc_node": 359.2436,
        "meta_arg_of_pericenter": 10.1974,
        "meta_mean_anomaly": 349.9512,
        "meta_ephemeris_type": 0,
        "meta_classification_type": "U",
        "meta_norad_cat_id": 35931,
        "meta_element_set_no": 999,
        "meta_rev_at_epoch": 85510,
        "meta_bstar": 2.8744485e-05,
        "meta_mean_motion_dot": 5e-08,
        "meta_mean_motion_ddot": 0,
        "tle_line1": "1 35931U 09051A   25359.98727560  .00000005  00000+0  28744-4 0  9997",
        "tle_line2": "2 35931  98.2218 359.2436 0015877  10.1974 349.9512 13.99622975855100"
      },
      "geometry": {
        "type": "Point",
        "coordinates": [
          5.473841454759606,
          -36.06447195376705
        ]
      }
    },
    {
      "type": "Feature",
      "properties": {
        "norad_id": 35946,
        "name": "WORLDVIEW-2 (WV-2)",
        "group": "resource",
        "lat": 50.64734300761304,
        "lon": -98.42696334119002,
        "alt_km": 761.4075652922993,
        "timestamp": "2025-12-26T04:40:05.444899+00:00",
        "meta_object_name": "WORLDVIEW-2 (WV-2)",
        "meta_object_id": "2009-055A",
        "meta_epoch": "2025-12-25T21:23:30.730560",
        "meta_mean_motion": 14.37729731,
        "meta_eccentricity": 0.00046762,
        "meta_inclination": 98.4772,
        "meta_ra_of_asc_node": 70.7952,
        "meta_arg_of_pericenter": 38.0554,
        "meta_mean_anomaly": 322.0963,
        "meta_ephemeris_type": 0,
        "meta_classification_type": "U",
        "meta_norad_cat_id": 35946,
        "meta_element_set_no": 999,
        "meta_rev_at_epoch": 85074,
        "meta_bstar": 7.1851445e-05,
        "meta_mean_motion_dot": 1.73e-06,
        "meta_mean_motion_ddot": 0,
        "tle_line1": "1 35946U 09055A   25359.89132790  .00000173  00000+0  71851-4 0  9995",
        "tle_line2": "2 35946  98.4772  70.7952 0004676  38.0554 322.0963 14.37729731850747"
      },
      "geometry": {
        "type": "Point",
        "coordinates": [
          -98.42696334119002,
          50.64734300761304
        ]
      }
    }
  ]
}